[
    {
        "Altitude(m)": 559487.6731557109,
        "Argument of Periapsis(deg)": 0.006622991110713501,
        "Eccentricity": 0.0,
        "Inclination(deg)": 53.0,
        "Latitude(deg)": 51.347079818074036,
        "Longitude(deg)": -86.21555621840064,
        "Mean Anomaly(deg)": -282.63570713242245,
        "RAAN(deg)": 304.99014336852804,
        "Satellite Name": "Starlink Shell 1 1346",
        "Satellite Number": 1346,
        "Semi-Major Axis(m)": 6931778.249405717,
        "Time(s)": 190
    },
    {
        "Altitude(m)": 559526.824904247,
        "Argument of Periapsis(deg)": 0.0069715695902247375,
        "Eccentricity": 0.0,
        "Inclination(deg)": 53.0,
        "Latitude(deg)": 51.518055186300856,
        "Longitude(deg)": -85.29206940020052,
        "Mean Anomaly(deg)": -282.0088759288657,
        "RAAN(deg)": 304.9896245984506,
        "Satellite Name": "Starlink Shell 1 1346",
        "Satellite Number": 1346,
        "Semi-Major Axis(m)": 6931778.249405717,
        "Time(s)": 200
    },
    {
        "Altitude(m)": 559564.131644108,
        "Argument of Periapsis(deg)": 0.007320148069735974,
        "Eccentricity": 0.0,
        "Inclination(deg)": 53.0,
        "Latitude(deg)": 51.681036613975564,
        "Longitude(deg)": -84.36150678619784,
        "Mean Anomaly(deg)": -281.38204472530896,
        "RAAN(deg)": 304.98910582837306,
        "Satellite Name": "Starlink Shell 1 1346",
        "Satellite Number": 1346,
        "Semi-Major Axis(m)": 6931778.249405717,
        "Time(s)": 210
    },
    {
        "Altitude(m)": 559599.5708879057,
        "Argument of Periapsis(deg)": 0.007668726549247212,
        "Eccentricity": 0.0,
        "Inclination(deg)": 53.0,
        "Latitude(deg)": 51.83592044872702,
        "Longitude(deg)": -83.42412124472283,
        "Mean Anomaly(deg)": -280.7552135217523,
        "RAAN(deg)": 304.9885870582956,
        "Satellite Name": "Starlink Shell 1 1346",
        "Satellite Number": 1346,
        "Semi-Major Axis(m)": 6931778.249405717,
        "Time(s)": 220
    },
    {
        "Altitude(m)": 559633.1212908563,
        "Argument of Periapsis(deg)": 0.00801730502875845,
        "Eccentricity": 0.0,
        "Inclination(deg)": 53.0,
        "Latitude(deg)": 51.982606555369934,
        "Longitude(deg)": -82.48018184852894,
        "Mean Anomaly(deg)": -280.1283823181955,
        "RAAN(deg)": 304.98806828821813,
        "Satellite Name": "Starlink Shell 1 1346",
        "Satellite Number": 1346,
        "Semi-Major Axis(m)": 6931778.249405717,
        "Time(s)": 230
    },
    {
        "Altitude(m)": 559664.7626612349,
        "Argument of Periapsis(deg)": 0.008365883508269684,
        "Eccentricity": 0.0,
        "Inclination(deg)": 53.0,
        "Latitude(deg)": 52.12099860162164,
        "Longitude(deg)": -81.52997313138299,
        "Mean Anomaly(deg)": -279.50155111463886,
        "RAAN(deg)": 304.98754951814067,
        "Satellite Name": "Starlink Shell 1 1346",
        "Satellite Number": 1346,
        "Semi-Major Axis(m)": 6931778.249405717,
        "Time(s)": 240
    },
    {
        "Altitude(m)": 559694.4759702173,
        "Argument of Periapsis(deg)": 0.008714461987780921,
        "Eccentricity": 0.0,
        "Inclination(deg)": 53.0,
        "Latitude(deg)": 52.251004340918335,
        "Longitude(deg)": -80.57379577288222,
        "Mean Anomaly(deg)": -278.87471991108214,
        "RAAN(deg)": 304.98703074806315,
        "Satellite Name": "Starlink Shell 1 1346",
        "Satellite Number": 1346,
        "Semi-Major Axis(m)": 6931778.249405717,
        "Time(s)": 250
    },
    {
        "Altitude(m)": 559722.2433611678,
        "Argument of Periapsis(deg)": 0.009063040467292158,
        "Eccentricity": 0.0,
        "Inclination(deg)": 53.0,
        "Latitude(deg)": 52.37253589058743,
        "Longitude(deg)": -79.61196568413533,
        "Mean Anomaly(deg)": -278.24788870752536,
        "RAAN(deg)": 304.98651197798574,
        "Satellite Name": "Starlink Shell 1 1346",
        "Satellite Number": 1346,
        "Semi-Major Axis(m)": 6931778.249405717,
        "Time(s)": 260
    },
    {
        "Altitude(m)": 559748.0481583865,
        "Argument of Periapsis(deg)": 0.009411618946803396,
        "Eccentricity": 0.0,
        "Inclination(deg)": 53.0,
        "Latitude(deg)": 52.485510003657396,
        "Longitude(deg)": -78.64481300571263,
        "Mean Anomaly(deg)": -277.6210575039687,
        "RAAN(deg)": 304.9859932079083,
        "Satellite Name": "Starlink Shell 1 1346",
        "Satellite Number": 1346,
        "Semi-Major Axis(m)": 6931778.249405717,
        "Time(s)": 270
    },
    {
        "Altitude(m)": 559771.8748752,
        "Argument of Periapsis(deg)": 0.009760197426314633,
        "Eccentricity": 0.0,
        "Inclination(deg)": 53.0,
        "Latitude(deg)": 52.58984833233273,
        "Longitude(deg)": -77.6726825319855,
        "Mean Anomaly(deg)": -276.994226300412,
        "RAAN(deg)": 304.98547443783076,
        "Satellite Name": "Starlink Shell 1 1346",
        "Satellite Number": 1346,
        "Semi-Major Axis(m)": 6931778.249405717,
        "Time(s)": 280
    },
    {
        "Altitude(m)": 559793.7092215363,
        "Argument of Periapsis(deg)": 0.01010877590582587,
        "Eccentricity": 0.0,
        "Inclination(deg)": 53.0,
        "Latitude(deg)": 52.68547768153787,
        "Longitude(deg)": -76.69593253501472,
        "Mean Anomaly(deg)": -276.3673950968552,
        "RAAN(deg)": 304.9849556677533,
        "Satellite Name": "Starlink Shell 1 1346",
        "Satellite Number": 1346,
        "Semi-Major Axis(m)": 6931778.249405717,
        "Time(s)": 290
    },
    {
        "Altitude(m)": 559813.5381108986,
        "Argument of Periapsis(deg)": 0.010457354385337106,
        "Eccentricity": 0.0,
        "Inclination(deg)": 53.0,
        "Latitude(deg)": 52.77233025054126,
        "Longitude(deg)": -75.71493350400479,
        "Mean Anomaly(deg)": -275.74056389329854,
        "RAAN(deg)": 304.98443689767583,
        "Satellite Name": "Starlink Shell 1 1346",
        "Satellite Number": 1346,
        "Semi-Major Axis(m)": 6931778.249405717,
        "Time(s)": 300
    },
    {
        "Altitude(m)": 559831.3496667226,
        "Argument of Periapsis(deg)": 0.010805932864848343,
        "Eccentricity": 0.0,
        "Inclination(deg)": 53.0,
        "Latitude(deg)": 52.85034386095405,
        "Longitude(deg)": -74.73006831521076,
        "Mean Anomaly(deg)": -275.1137326897418,
        "RAAN(deg)": 304.9839181275984,
        "Satellite Name": "Starlink Shell 1 1346",
        "Satellite Number": 1346,
        "Semi-Major Axis(m)": 6931778.249405717,
        "Time(s)": 310
    },
    {
        "Altitude(m)": 559847.1332281735,
        "Argument of Periapsis(deg)": 0.01115451134435958,
        "Eccentricity": 0.0,
        "Inclination(deg)": 53.0,
        "Latitude(deg)": 52.91946216936398,
        "Longitude(deg)": -73.74173081024269,
        "Mean Anomaly(deg)": -274.48690148618516,
        "RAAN(deg)": 304.9833993575209,
        "Satellite Name": "Starlink Shell 1 1346",
        "Satellite Number": 1346,
        "Semi-Major Axis(m)": 6931778.249405717,
        "Time(s)": 320
    },
    {
        "Altitude(m)": 559860.8793553383,
        "Argument of Periapsis(deg)": 0.011503089823870818,
        "Eccentricity": 0.0,
        "Inclination(deg)": 53.0,
        "Latitude(deg)": 52.97963486295495,
        "Longitude(deg)": -72.75032430013745,
        "Mean Anomaly(deg)": -273.8600702826284,
        "RAAN(deg)": 304.9828805874434,
        "Satellite Name": "Starlink Shell 1 1346",
        "Satellite Number": 1346,
        "Semi-Major Axis(m)": 6931778.249405717,
        "Time(s)": 330
    },
    {
        "Altitude(m)": 559872.5798338208,
        "Argument of Periapsis(deg)": 0.011851668303382053,
        "Eccentricity": 0.0,
        "Inclination(deg)": 53.0,
        "Latitude(deg)": 53.03081783655956,
        "Longitude(deg)": -71.7562615134825,
        "Mean Anomaly(deg)": -273.2332390790717,
        "RAAN(deg)": 304.9823618173659,
        "Satellite Name": "Starlink Shell 1 1346",
        "Satellite Number": 1346,
        "Semi-Major Axis(m)": 6931778.249405717,
        "Time(s)": 340
    },
    {
        "Altitude(m)": 559882.2276787347,
        "Argument of Periapsis(deg)": 0.012200246782893292,
        "Eccentricity": 0.0,
        "Inclination(deg)": 53.0,
        "Latitude(deg)": 53.07297334971337,
        "Longitude(deg)": -70.75996296913532,
        "Mean Anomaly(deg)": -272.60640787551495,
        "RAAN(deg)": 304.98184304728846,
        "Satellite Name": "Starlink Shell 1 1346",
        "Satellite Number": 1346,
        "Semi-Major Axis(m)": 6931778.249405717,
        "Time(s)": 350
    },
    {
        "Altitude(m)": 559889.817138108,
        "Argument of Periapsis(deg)": 0.012548825262404526,
        "Eccentricity": 0.0,
        "Inclination(deg)": 53.0,
        "Latitude(deg)": 53.106070162419094,
        "Longitude(deg)": -69.76185529348766,
        "Mean Anomaly(deg)": -271.9795766719583,
        "RAAN(deg)": 304.981324277211,
        "Satellite Name": "Starlink Shell 1 1346",
        "Satellite Number": 1346,
        "Semi-Major Axis(m)": 6931778.249405717,
        "Time(s)": 360
    },
    {
        "Altitude(m)": 559895.3436956787,
        "Argument of Periapsis(deg)": 0.012897403741915765,
        "Eccentricity": 0.0,
        "Inclination(deg)": 53.0,
        "Latitude(deg)": 53.130083648486654,
        "Longitude(deg)": -68.76237100295535,
        "Mean Anomaly(deg)": -271.35274546840157,
        "RAAN(deg)": 304.9808055071335,
        "Satellite Name": "Starlink Shell 1 1346",
        "Satellite Number": 1346,
        "Semi-Major Axis(m)": 6931778.249405717,
        "Time(s)": 370
    }
]